NIMIQ 5                 
1 35873U 09050A   22023.85674406 -.00000244  00000+0  00000+0 0  9998
2 35873   0.0162  73.8196 0002899 247.7147  37.3388  1.00271142 45257
AMAZONAS 2              
1 35942U 09054A   22023.85674406 -.00000270  00000+0  00000+0 0  9998
2 35942   0.0253 173.2766 0000530 119.9033  77.3992  1.00272827 45084
COMSATBW-1              
1 35943U 09054B   22023.82320451  .00000036  00000+0  00000+0 0  9993
2 35943   0.0935  96.0817 0002208 212.6351 173.7576  1.00272118 45216
NSS-12                  
1 36032U 09058A   22023.82350545  .00000083  00000+0  00000+0 0  9996
2 36032   0.0467 276.8157 0002782  37.7964 161.9575  1.00272065 44829
THOR 6                  
1 36033U 09058B   22023.86855192  .00000002  00000+0  00000+0 0  9990
2 36033   0.0151 129.1271 0001781 184.4985 121.3610  1.00271393 44900
INTELSAT 14 (IS-14)     
1 36097U 09064A   22024.00951943 -.00000261  00000+0  00000+0 0  9993
2 36097   0.0150  81.7633 0002421 238.3199 121.6509  1.00271167 44608
EUTELSAT 36B            
1 36101U 09065A   22023.76916337  .00000167  00000+0  00000+0 0  9994
2 36101   0.0651   5.5914 0004829 301.3850 128.8637  1.00269988 44626
INTELSAT 15 (IS-15)     
1 36106U 09067A   22023.94424272 -.00000173  00000+0  00000+0 0  9991
2 36106   0.0153  70.1988 0002297 239.4311 238.6819  1.00271713 25133
WGS F3 (USA 211)        
1 36108U 09068A   22023.86961898  .00000063  00000+0  00000+0 0  9992
2 36108   0.1127  96.1490 0000255 115.7092  44.1733  1.00271356 30513
DIRECTV 12              
1 36131U 09075A   22024.02857451 -.00000091  00000+0  00000+0 0  9996
2 36131   0.0504 232.5660 0000309 140.0585  18.2648  1.00270897 44296
BEIDOU 3                
1 36287U 10001A   22023.79530002 -.00000270  00000+0  00000+0 0  9991
2 36287   1.8355  46.2342 0001430  41.8389 101.7347  1.00269474 44062
RADUGA-1M 2             
1 36358U 10002A   22023.85813306 -.00000171  00000+0  00000+0 0  9999
2 36358   0.0754 255.5982 0002352  32.3463 229.1310  1.00270173 33995
SDO                     
1 36395U 10005A   22023.28631833 -.00000067  00000+0  00000+0 0  9997
2 36395  31.3750 111.5896 0001798 236.9068 134.9192  1.00268511 43962
INTELSAT 16 (IS-16)     
1 36397U 10006A   22023.85118977 -.00000232  00000+0  00000+0 0  9996
2 36397   0.0167  77.2799 0002120 242.1590  33.9407  1.00272081 43557
GOES 15                 
1 36411U 10008A   22023.73636928  .00000068  00000+0  00000+0 0  9999
2 36411   0.0754 266.4744 0001050  89.2026 264.0844  1.00272285 43573
ECHOSTAR 14             
1 36499U 10010A   22023.65853576  .00000013  00000+0  00000+0 0  9999
2 36499   0.0146  68.5229 0002655 236.0759 296.5444  1.00270967 30454
SES-1                   
1 36516U 10016A   22023.67333873 -.00000102  00000+0  00000+0 0  9990
2 36516   0.0094  35.4118 0002575 276.7694 312.1843  1.00271867 42941
ASTRA 3B                
1 36581U 10021A   22023.83868655  .00000149  00000+0  00000+0 0  9997
2 36581   0.0585  62.9824 0004164 228.1377 157.4011  1.00271897 42784
COMSATBW-2              
1 36582U 10021B   22023.76462801  .00000100  00000+0  00000+0 0  9990
2 36582   0.0487  92.6278 0002168 219.8499  99.0053  1.00271068 42858
BADR-5                  
1 36592U 10025A   22023.76715734  .00000157  00000+0  00000+0 0  9993
2 36592   0.0433 111.8275 0000477 165.2385 148.1445  1.00272395 37118
COMS 1                  
1 36744U 10032A   22023.88829028 -.00000333  00000+0  00000+0 0  9992
2 36744   0.7070  96.0367 0000905 221.9082 253.1964  1.00271942 34990
ARABSAT-5A              
1 36745U 10032B   22023.76802951  .00000165  00000+0  00000+0 0  9998
2 36745   0.0498  30.1542 0001959 275.1933 124.6912  1.00268880 42540
ECHOSTAR 15             
1 36792U 10034A   22023.85674406 -.00000269  00000+0  00000+0 0  9990
2 36792   0.0137  64.1559 0001970 215.6369  90.1371  1.00272486 42231
BEIDOU 5                
1 36828U 10036A   22023.57585801 -.00000076  00000+0  00000+0 0  9997
2 36828  54.1889 177.5589 0027185 178.1464  81.8657  1.00288557 42120
NILESAT 201             
1 36830U 10037A   22023.86855192 -.00000046  00000+0  00000+0 0  9993
2 36830   0.0535 217.0324 0003568 109.0213 102.7605  1.00271258 42263
RASCOM-QAF 1R           
1 36831U 10037B   22024.05451404  .00000030  00000+0  00000+0 0  9996
2 36831   0.0331  96.6959 0006765 195.5351 213.6142  1.00270963 42190
AEHF-1 (USA 214)        
1 36868U 10039A   22023.76717660  .00000035  00000+0  00000+0 0  9999
2 36868   4.1722  88.7638 0001579 326.2524 348.2714  1.00268320 37556
CHINASAT 6A (ZX 6A)     
1 37150U 10042A   22020.93504222 -.00000335  00000+0  00000+0 0  9996
2 37150   0.0751 102.7588 0007546 191.5720 281.2591  0.99951259 41775
QZS-1 (MICHIBIKI-1)     
1 37158U 10045A   22023.59658976 -.00000113  00000+0  00000+0 0  9992
2 37158  42.1859 135.3995 0761837 270.5105  74.8831  1.00267268 41617
XM-5                    
1 37185U 10053A   22023.66189369 -.00000011  00000+0  00000+0 0  9991
2 37185   0.0440 155.4764 0000342   2.9290  87.6400  1.00272589 41382
BSAT-3B                 
1 37207U 10056B   22024.04355146 -.00000338  00000+0  00000+0 0  9992
2 37207   0.0751 305.7621 0004649  19.7687 283.3254  1.00271784 41179
BEIDOU 6                
1 37210U 10057A   22024.23164447 -.00000100  00000+0  00000+0 0  9997
2 37210   0.9073  51.0745 0005690 166.4343 149.4152  1.00273264 41199
SKYTERRA 1              
1 37218U 10061A   22023.88514385 -.00000106  00000+0  00000+0 0  9996
2 37218   2.2985  26.8923 0002165 291.8408  21.7869  1.00271464 41097
ZHONGXING-20A           
1 37234U 10064A   22023.78695589 -.00000339  00000+0  00000+0 0  9990
2 37234   2.2871  90.2762 0003126 229.6904 212.7837  1.00275624 40934
HYLAS 1                 
1 37237U 10065A   22023.62479906 -.00000214  00000+0  00000+0 0  9992
2 37237   1.5525  91.7940 0002236 217.3681 317.8850  1.00269225 40882
INTELSAT 17 (IS-17)     
1 37238U 10065B   22023.75928661  .00000010  00000+0  00000+0 0  9997
2 37238   0.0133 116.4194 0002555 198.3420 147.6164  1.00272460 37148
BEIDOU 7                
1 37256U 10068A   22023.85106140 -.00000186  00000+0  00000+0 0  9996
2 37256  50.4686 291.3780 0017776 188.7258  55.7426  1.00296013 40691
EUTELSAT KA-SAT 9A      
1 37258U 10069A   22023.54837382  .00000074  00000+0  00000+0 0  9999
2 37258   0.0557 256.6901 0000218 186.7145 245.8171  1.00271681 27896
HISPASAT 30W-5          
1 37264U 10070A   22023.87966047 -.00000204  00000+0  00000+0 0  9991
2 37264   0.0360 109.9597 0002006 204.2109  95.6515  1.00269774 37084
KOREASAT 6              
1 37265U 10070B   22023.87589171 -.00000350  00000+0  00000+0 0  9993
2 37265   0.0218  77.1845 0001519 230.3082 247.0016  1.00271152 40678
BEIDOU 8                
1 37384U 11013A   22023.84890605 -.00000165  00000+0  00000+0 0  9991
2 37384  60.0876  55.6967 0021230 193.2974 286.4776  1.00293817 39570
INTELSAT NEW DAWN       
1 37392U 11016A   22024.06626622  .00000168  00000+0  00000+0 0  9996
2 37392   0.0188 165.3407 0000813 351.3339  23.3246  1.00273370 39429
YAHSAT 1A               
1 37393U 11016B   22023.77239043  .00000113  00000+0  00000+0 0  9991
2 37393   0.0120  74.7099 0001958 222.4840 156.4400  1.00269374 26304
SBIRS GEO-1 (USA 230)   
1 37481U 11019A   22023.77518141  .00000004  00000+0  00000+0 0  9990
2 37481   1.8305  15.6795 0001952 285.0559 167.5865  1.00272155 39302
TELSTAR 14R             
1 37602U 11021A   22023.85674406 -.00000267  00000+0  00000+0 0  9996
2 37602   0.0244 337.4324 0003135   3.1198  28.0081  1.00270918 39739
GSAT-8                  
1 37605U 11022A   22023.77291375  .00000097  00000+0  00000+0 0  9991
2 37605   0.0440 266.3214 0007844  10.5262 179.5255  1.00271852 37127
ST-2                    
1 37606U 11022B   22023.82599625 -.00000199  00000+0  00000+0 0  9991
2 37606   0.0178  99.1032 0002280 232.8690 176.5194  1.00271044 39189
CHINASAT 10 (ZX 10)     
1 37677U 11026A   22023.87723439 -.00000340  00000+0  00000+0 0  9998
2 37677   0.0514 242.2862 0002705 341.0783 326.1381  1.00272116 38890
TIANLIAN 1-02           
1 37737U 11032A   22023.86700243 -.00000039  00000+0  00000+0 0  9994
2 37737   2.8238  75.0361 0074942 357.1631 170.0443  1.00273693 38625
GSAT-12                 
1 37746U 11034A   22023.77151824  .00000136  00000+0  00000+0 0  9998
2 37746   1.0147  94.2705 0007085 346.3264   8.1329  1.00273770 27398
SES-3                   
1 37748U 11035A   22023.88496940 -.00000089  00000+0  00000+0 0  9992
2 37748   0.0418 298.7792 0003074  20.3721  19.6071  1.00271655 38504
KAZSAT-2                
1 37749U 11035B   22023.82599625 -.00000186  00000+0  00000+0 0  9999
2 37749   0.0167 218.0190 0000936 165.1873 123.8040  1.00270458 37292
BEIDOU 9                
1 37763U 11038A   22023.11863964 -.00000029  00000+0  00000+0 0  9996
2 37763  54.4745 180.0373 0087422 225.2067 214.8753  1.00264657 38547
ASTRA 1N                
1 37775U 11041A   22023.83868655  .00000131  00000+0  00000+0 0  9997
2 37775   0.0424  10.6247 0003543 345.7173  87.9123  1.00269163 28431
BSAT-3C (JCSAT-110R)    
1 37776U 11041B   22023.87723439 -.00000339  00000+0  00000+0 0  9993
2 37776   0.0079  17.4940 0000312  48.7411 122.7018  1.00272691 34381
PAKSAT-1R               
1 37779U 11042A   22023.82569529  .00000166  00000+0  00000+0 0  9997
2 37779   0.0898 263.7422 0002204  97.2590  97.4639  1.00271278 38384
CHINASAT 1A (ZX 1A)     
1 37804U 11047A   22023.91246155 -.00000326  00000+0  00000+0 0  9997
2 37804   0.0324 141.4413 0001845 169.4629 270.6050  1.00268586 37978
SES-2                   
1 37809U 11049A   22024.03171437 -.00000184  00000+0  00000+0 0  9990
2 37809   0.0410 274.7649 0003088  38.3385  94.6296  1.00271748 37907
ARABSAT-5C              
1 37810U 11049B   22023.83868655  .00000135  00000+0  00000+0 0  9999
2 37810   0.0547  25.9492 0003474 207.1661 211.9256  1.00273467 37960
